NORAD_CAT_ID,OBJECT_NAME,OBJECT_TYPE,EPOCH,MEAN_MOTION,ECCENTRICITY,INCLINATION,RA_OF_ASC_NODE,ARG_OF_PERICENTER,MEAN_ANOMALY,BSTAR,MEAN_MOTION_DOT,MEAN_MOTION_DDOT,TLE_LINE0,TLE_LINE1,TLE_LINE2,SEMIMAJOR_AXIS,PERIOD,APOGEE,PERIGEE,DECAYED
55766.0,STARLINK-5599,PAYLOAD,2024-02-13 21:51:06,14.98322613,0.0002642,70.001,327.5565,264.9594,95.1264,-2.1048e-05,-3.44e-06,0.0,0 STARLINK-5599,1 55766U 23028AB  24044.91049522 -.00000344  00000-0 -21048-4 0  9992,2 55766  70.0010 327.5565 0002642 264.9594  95.1264 14.98322613 53470,6950.216,96.107,573.917,570.244,0.0
55766.0,STARLINK-5599,PAYLOAD,2024-02-14 04:15:38,14.98337657,0.0002795,70.0006,326.8862,253.0817,107.0035,4.1416e-06,-4.4e-07,0.0,0 STARLINK-5599,1 55766U 23028AB  24045.17752376 -.00000044  00000-0  41416-5 0  9997,2 55766  70.0006 326.8862 0002795 253.0817 107.0035 14.98337657 53500,6950.169,96.107,573.977,570.092,0.0
55766.0,STARLINK-5599,PAYLOAD,2024-02-14 12:16:18,14.98334512,0.0002499,70.0011,326.0436,276.0822,84.0052,-5.8853e-05,-7.95e-06,0.0,0 STARLINK-5599,1 55766U 23028AB  24045.51132843 -.00000795  00000-0 -58853-4 0  9992,2 55766  70.0011 326.0436 0002499 276.0822  84.0052 14.98334512 53563,6950.179,96.107,573.781,570.307,0.0
55766.0,STARLINK-5599,PAYLOAD,2024-02-14 21:53:07,14.98322722,0.0002397,70.0011,325.0336,267.0197,93.0688,5.8684e-05,6.07e-06,0.0,0 STARLINK-5599,1 55766U 23028AB  24045.91189437  .00000607  00000-0  58684-4 0  9999,2 55766  70.0011 325.0336 0002397 267.0197  93.0688 14.98322722 53625,6950.215,96.107,573.746,570.414,0.0
55766.0,STARLINK-5599,PAYLOAD,2024-02-15 02:41:31,14.98322222,0.0002401,70.0011,324.5284,266.7935,93.295,4.9469e-05,4.97e-06,0.0,0 STARLINK-5599,1 55766U 23028AB  24046.11217554  .00000497  00000-0  49469-4 0  9992,2 55766  70.0011 324.5284 0002401 266.7935  93.2950 14.98322222 53644,6950.217,96.107,573.751,570.413,0.0
55766.0,STARLINK-5599,PAYLOAD,2024-02-15 04:17:40,14.98322401,0.0002318,70.0014,324.3607,267.339,92.7504,5.8682e-05,6.07e-06,0.0,0 STARLINK-5599,1 55766U 23028AB  24046.17893598  .00000607  00000-0  58682-4 0  9996,2 55766  70.0014 324.3607 0002318 267.3390  92.7504 14.98322401 53663,6950.216,96.107,573.692,570.47,0.0
55766.0,STARLINK-5599,PAYLOAD,2024-02-15 18:42:52,14.98326764,0.000277,70.0009,322.8444,271.9012,88.183,0.00010179,1.122e-05,0.0,0 STARLINK-5599,1 55766U 23028AB  24046.77977238  .00001122  00000-0  10179-3 0  9997,2 55766  70.0009 322.8444 0002770 271.9012  88.1830 14.98326764 53750,6950.203,96.107,573.993,570.143,0.0
55766.0,STARLINK-5599,PAYLOAD,2024-02-16 04:19:40,14.98334502,0.0002623,70.0005,321.8353,265.2222,94.8637,-1.8828e-05,-3.18e-06,0.0,0 STARLINK-5599,1 55766U 23028AB  24047.18033086 -.00000318  00000-0 -18828-4 0  9995,2 55766  70.0005 321.8353 0002623 265.2222  94.8637 14.98334502 53804,6950.179,96.107,573.867,570.221,0.0
55766.0,STARLINK-5599,PAYLOAD,2024-02-16 21:57:09,14.98328883,0.0002744,70.0005,319.9837,275.6738,84.4108,8.3686e-05,9.06e-06,0.0,0 STARLINK-5599,1 55766U 23028AB  24047.91469093  .00000906  00000-0  83686-4 0  9992,2 55766  70.0005 319.9837 0002744 275.6738  84.4108 14.98328883 53926,6950.196,96.107,573.968,570.154,0.0
55766.0,STARLINK-5599,PAYLOAD,2024-02-17 10:46:13,14.98331468,0.0002482,70.0009,318.6368,274.8207,85.2668,7.598e-06,-2e-08,0.0,0 STARLINK-5599,1 55766U 23028AB  24048.44877054 -.00000002  00000-0  75980-5 0  9998,2 55766  70.0009 318.6368 0002482 274.8207  85.2668 14.98331468 53996,6950.188,96.107,573.778,570.328,0.0
55766.0,STARLINK-5599,PAYLOAD,2024-02-17 21:59:10,14.98327735,0.0002593,70.0015,317.4605,272.1866,87.8996,2.648e-05,2.23e-06,0.0,0 STARLINK-5599,1 55766U 23028AB  24048.91609191  .00000223  00000-0  26480-4 0  9999,2 55766  70.0015 317.4605 0002593 272.1866  87.8996 14.98327735 54073,6950.2,96.107,573.867,570.263,0.0
55766.0,STARLINK-5599,PAYLOAD,2024-02-18 10:48:14,14.98333975,0.0002628,69.9998,316.1125,271.6859,88.3999,-4.862e-05,-6.73e-06,0.0,0 STARLINK-5599,1 55766U 23028AB  24049.45016925 -.00000673  00000-0 -48620-4 0  9997,2 55766  69.9998 316.1125 0002628 271.6859  88.3999 14.98333975 54148,6950.181,96.107,573.872,570.219,0.0
55766.0,STARLINK-5599,PAYLOAD,2024-02-18 22:01:11,14.98324998,0.0002744,70.0001,314.935,265.4009,94.6836,9.8025e-05,1.077e-05,0.0,0 STARLINK-5599,1 55766U 23028AB  24049.91748922  .00001077  00000-0  98025-4 0  9998,2 55766  70.0001 314.9350 0002744 265.4009  94.6836 14.98324998 54223,6950.208,96.107,573.98,570.166,0.0
55766.0,STARLINK-5599,PAYLOAD,2024-02-19 10:50:15,14.98374322,0.0002258,70.0019,313.5855,286.6832,73.4079,-0.00094312,-0.0001134,0.0,0 STARLINK-5599,1 55766U 23028AB  24050.45156332 -.00011340  00000-0 -94312-3 0  9997,2 55766  70.0019 313.5855 0002258 286.6832  73.4079 14.98374322 54293,6950.056,96.104,573.49,570.352,0.0
55766.0,STARLINK-5599,PAYLOAD,2024-02-19 20:27:04,14.98318873,0.000266,70.0002,312.5778,269.7587,90.3267,-6.2864e-05,-8.43e-06,0.0,0 STARLINK-5599,1 55766U 23028AB  24050.85213850 -.00000843  00000-0 -62864-4 0  9994,2 55766  70.0002 312.5778 0002660 269.7587  90.3267 14.98318873 54357,6950.227,96.108,573.941,570.244,0.0
55766.0,STARLINK-5599,PAYLOAD,2024-02-19 23:39:20,14.98321516,0.0002838,69.9998,312.2419,267.6629,92.4205,-7.5781e-05,-9.97e-06,0.0,0 STARLINK-5599,1 55766U 23028AB  24050.98565753 -.00000997  00000-0 -75781-4 0  9992,2 55766  69.9998 312.2419 0002838 267.6629  92.4205 14.98321516 54384,6950.219,96.108,574.057,570.112,0.0
55766.0,STARLINK-5599,PAYLOAD,2024-02-20 10:52:16,14.98327888,0.0002857,69.9992,311.0626,268.9841,91.0991,-2.0957e-05,-3.43e-06,0.0,0 STARLINK-5599,1 55766U 23028AB  24051.45297363 -.00000343  00000-0 -20957-4 0  9994,2 55766  69.9992 311.0626 0002857 268.9841  91.0991 14.98327888 54448,6950.199,96.107,574.05,570.079,0.0
55766.0,STARLINK-5599,PAYLOAD,2024-02-20 22:05:12,14.98331813,0.0002909,69.9991,309.8846,269.011,91.0716,5.1963e-05,5.27e-06,0.0,0 STARLINK-5599,1 55766U 23028AB  24051.92028902  .00000527  00000-0  51963-4 0  9990,2 55766  69.9991 309.8846 0002909 269.0110  91.0716 14.98331813 54522,6950.187,96.107,574.074,570.03,0.0
55766.0,STARLINK-5599,PAYLOAD,2024-02-21 02:53:36,14.98338155,0.0002849,69.9992,309.3785,266.8247,93.2587,8.4395e-05,9.14e-06,0.0,0 STARLINK-5599,1 55766U 23028AB  24052.12056331  .00000914  00000-0  84395-4 0  9995,2 55766  69.9992 309.3785 0002849 266.8247  93.2587 14.98338155 54547,6950.168,96.106,574.013,570.053,0.0
55766.0,STARLINK-5599,PAYLOAD,2024-02-21 10:54:17,14.98336466,0.0002932,69.9989,308.537,269.5326,90.5497,-4.5522e-05,-6.36e-06,0.0,0 STARLINK-5599,1 55766U 23028AB  24052.45436654 -.00000636  00000-0 -45522-4 0  9993,2 55766  69.9989 308.5370 0002932 269.5326  90.5497 14.98336466 54605,6950.173,96.107,574.076,570.0,0.0
55766.0,STARLINK-5599,PAYLOAD,2024-02-21 20:31:06,14.9832379,0.0002966,69.999,307.5269,268.7798,91.3021,0.00011006,1.22e-05,0.0,0 STARLINK-5599,1 55766U 23028AB  24052.85493096  .00001220  00000-0  11006-3 0  9997,2 55766  69.9990 307.5269 0002966 268.7798  91.3021 14.98323790 54657,6950.212,96.107,574.139,570.016,0.0
55766.0,STARLINK-5599,PAYLOAD,2024-02-21 22:07:14,14.98323846,0.0002968,69.9989,307.3586,268.7607,91.3212,0.00010778,1.193e-05,0.0,0 STARLINK-5599,1 55766U 23028AB  24052.92169117  .00001193  00000-0  10778-3 0  9993,2 55766  69.9989 307.3586 0002968 268.7607  91.3212 14.98323846 54672,6950.212,96.107,574.14,570.014,0.0
55766.0,STARLINK-5599,PAYLOAD,2024-02-22 02:55:38,14.9832847,0.0002935,69.999,306.8531,267.629,92.4533,9.3045e-05,1.017e-05,0.0,0 STARLINK-5599,1 55766U 23028AB  24053.12196883  .00001017  00000-0  93045-4 0  9990,2 55766  69.9990 306.8531 0002935 267.6290  92.4533 14.98328470 54708,6950.198,96.107,574.103,570.023,0.0
55766.0,STARLINK-5599,PAYLOAD,2024-02-22 20:33:06,14.98335404,0.0002793,69.9993,305.0016,269.2694,90.8145,-2.9044e-05,-4.4e-06,0.0,0 STARLINK-5599,1 55766U 23028AB  24053.85632721 -.00000440  00000-0 -29044-4 0  9995,2 55766  69.9993 305.0016 0002793 269.2694  90.8145 14.98335404 54816,6950.176,96.107,573.982,570.1,0.0
55766.0,STARLINK-5599,PAYLOAD,2024-02-23 02:57:38,14.98338414,0.0002787,69.9994,304.3282,269.7776,90.3064,-6.7989e-06,-1.74e-06,0.0,0 STARLINK-5599,1 55766U 23028AB  24054.12336367 -.00000174  00000-0 -67989-5 0  9998,2 55766  69.9994 304.3282 0002787 269.7776  90.3064 14.98338414 54845,6950.167,96.106,573.969,570.095,0.0
55766.0,STARLINK-5599,PAYLOAD,2024-02-23 09:22:11,14.98330526,0.0002642,69.9996,303.6551,265.7901,94.2957,-8.4781e-06,-1.94e-06,0.0,0 STARLINK-5599,1 55766U 23028AB  24054.39040807 -.00000194  00000-0 -84781-5 0  9999,2 55766  69.9996 303.6551 0002642 265.7901  94.2957 14.98330526 54888,6950.191,96.107,573.893,570.22,0.0
55766.0,STARLINK-5599,PAYLOAD,2024-02-23 22:11:15,14.98328207,0.0002816,69.999,302.3089,272.1621,87.9216,-9.8796e-06,-2.11e-06,0.0,0 STARLINK-5599,1 55766U 23028AB  24054.92448928 -.00000211  00000-0 -98796-5 0  9995,2 55766  69.9990 302.3089 0002816 272.1621  87.9216 14.98328207 54978,6950.198,96.107,574.021,570.106,0.0
55766.0,STARLINK-5599,PAYLOAD,2024-02-24 09:24:12,14.98326952,0.0002625,69.9994,301.1305,264.22,95.866,7.0397e-05,7.47e-06,0.0,0 STARLINK-5599,1 55766U 23028AB  24055.39180797  .00000747  00000-0  70397-4 0  9992,2 55766  69.9994 301.1305 0002625 264.2200  95.8660 14.98326952 55037,6950.202,96.107,573.892,570.243,0.0
55766.0,STARLINK-5599,PAYLOAD,2024-02-25 03:01:40,14.98335397,0.0002677,69.9994,299.2786,270.7929,89.2923,2.9537e-05,2.6e-06,0.0,0 STARLINK-5599,1 55766U 23028AB  24056.12616151  .00000260  00000-0  29537-4 0  9992,2 55766  69.9994 299.2786 0002677 270.7929  89.2923 14.98335397 55148,6950.176,96.107,573.902,570.181,0.0
55766.0,STARLINK-5599,PAYLOAD,2024-02-25 09:26:13,14.98328611,0.0002613,69.9992,298.6047,264.3553,95.7308,-1.186e-05,-2.34e-06,0.0,0 STARLINK-5599,1 55766U 23028AB  24056.39320638 -.00000234  00000-0 -11860-4 0  9996,2 55766  69.9992 298.6047 0002613 264.3553  95.7308 14.98328611 55185,6950.197,96.107,573.878,570.246,0.0
